IRIDIUM 116             
1 43072U 17083C   23340.13095125  .00000409  00000+0  13885-3 0  9993
2 43072  86.3964 348.2141 0002127  88.8916 271.2523 14.34218577311727
IRIDIUM 130             
1 43073U 17083D   23340.09924831  .00001101  00000+0  38620-3 0  9998
2 43073  86.3970 348.4128 0002278  89.6765 270.4691 14.34210699311667
IRIDIUM 151             
1 43074U 17083E   23340.49248781 -.00000523  00000+0 -19389-3 0  9996
2 43074  86.3962 348.0996 0001847  93.7591 266.3816 14.34212479311742
IRIDIUM 134             
1 43075U 17083F   23339.55378685  .00000422  00000+0  14364-3 0  9993
2 43075  86.3944 348.4897 0003513  78.1654 281.9936 14.34213230311579
IRIDIUM 137             
1 43076U 17083G   23340.47346197 -.00000315  00000+0 -11947-3 0  9997
2 43076  86.3968 348.1775 0001920  88.2357 271.9059 14.34212326311772
IRIDIUM 141             
1 43077U 17083H   23339.56013441  .00000406  00000+0  13795-3 0  9991
2 43077  86.3966 348.4421 0002084  94.1685 265.9749 14.34215259311647
IRIDIUM 153             
1 43078U 17083J   23340.48906634  .00000344  00000+0  11590-3 0  9992
2 43078  86.3948 316.5056 0002111  97.0134 263.1302 14.34212579312884
IRIDIUM 131             
1 43079U 17083K   23340.52420053  .00000466  00000+0  15924-3 0  9994
2 43079  86.3970 348.1636 0002103  92.5015 267.6422 14.34212509311710
